FIREFLY ALPHA R/B       
1 68128U 26046B   26080.32652119  .00047522  00000+0  65682-3 0  9997
2 68128 123.0931 256.4327 0014738   2.8695 357.2448 15.56595850  1450
GUOWANG GROUP 20 OBJECT*
1 68129U 26047A   26078.05554438 -.00000148  00000+0  22254-5 0  9995
2 68129  50.0054  32.2608 0008899 282.8383  77.1528 14.05638332   882
GUOWANG GROUP 20 OBJECT*
1 68130U 26047B   26078.05501345 -.00000148  00000+0  25318-5 0  9990
2 68130  50.0044  32.2582 0007546 277.9720  82.0329 14.05761022   878
GUOWANG GROUP 20 OBJECT*
1 68131U 26047C   26078.62349940 -.00000148  00000+0  24365-5 0  9996
2 68131  50.0037  29.9293 0008114 287.0160  72.9856 14.05810373   962
GUOWANG GROUP 20 OBJECT*
1 68132U 26047D   26078.12556338 -.00000146  00000+0  36920-5 0  9991
2 68132  50.0078  31.9684 0008434 289.4802  70.5192 14.05881519   887
GUOWANG GROUP 20 OBJECT*
1 68133U 26047E   26076.06403444 -.00000145  00000+0  46301-5 0  9995
2 68133  50.0041  40.3867 0006830 274.9069  85.1056 14.05931996   603
GUOWANG GROUP 20 OBJECT*
1 68134U 26047F   26078.97756282 -.00000149  00000+0  20813-5 0  9993
2 68134  50.0091  28.4795 0006391 289.3722  70.6492 14.06079851  1006
GUOWANG GROUP 20 OBJECT*
1 68135U 26047G   26080.96960955  .00000028  00000+0  11252-3 0  9990
2 68135  50.0049  20.3575 0001994 304.9819  55.0898 14.04103272  1293
GUOWANG GROUP 20 OBJECT*
1 68136U 26047H   26079.83055731 -.00000145  00000+0  43052-5 0  9998
2 68136  50.0016  24.9935 0009546 285.3143  74.6707 14.05754608  1125
GUOWANG GROUP 20 OBJECT*
1 68137U 26047J   26077.98170420 -.00000144  00000+0  48405-5 0  9992
2 68137  50.0089  32.5436 0005912 296.0035  64.0262 14.06269806   871
CZ-8A R/B               
1 68138U 26047K   26080.92843485  .00000094  00000+0  13333-3 0  9992
2 68138  49.9537  20.0614 0044772 180.4036 179.6842 14.12229742  1286
SHIYAN-30 03            
1 68139U 26048A   26080.95333681  .00002873  00000+0  28293-3 0  9997
2 68139  35.0001  70.5503 0003951 304.8630  55.1703 14.91687905  1338
